STARLINK-31959          
1 59925U 24106D   26068.41087725 -.00001364  00000+0 -40088-4 0  9998
2 59925  43.0019 330.2606 0000556  12.7050 347.3816 15.27564146100521
TEVEL2-8                
1 63239U 25052AF  26068.66815442  .00019130  00000+0  69304-3 0  9993
2 63239  97.4055 324.2923 0008031 124.9191 235.2804 15.28392908 54807
